{
  "links" : {
    "next" : "https://api.nasa.gov/neo/rest/v1/neo/browse?page=34&size=20&api_key=jqAGvNAwUIBu4fl9FSOjdm3V4F7hIglRzI6pdX9d",
    "prev" : "https://api.nasa.gov/neo/rest/v1/neo/browse?page=32&size=20&api_key=jqAGvNAwUIBu4fl9FSOjdm3V4F7hIglRzI6pdX9d",
    "self" : "https://api.nasa.gov/neo/rest/v1/neo/browse?page=33&size=20&api_key=jqAGvNAwUIBu4fl9FSOjdm3V4F7hIglRzI6pdX9d"
  },
  "page" : {
    "size" : 20,
    "total_elements" : 20750,
    "total_pages" : 1038,
    "number" : 33
  },
  "near_earth_objects" : [ {
    "links" : {
      "self" : "https://api.nasa.gov/neo/rest/v1/neo/3385161?api_key=jqAGvNAwUIBu4fl9FSOjdm3V4F7hIglRzI6pdX9d"
    },
    "neo_reference_id" : "3385161",
    "name" : "(2007 RN133)",
    "designation" : "2007 RN133",
    "nasa_jpl_url" : "http://ssd.jpl.nasa.gov/sbdb.cgi?sstr=3385161",
    "absolute_magnitude_h" : 25.2,
    "estimated_diameter" : {
      "kilometers" : {
        "estimated_diameter_min" : 0.0242412481,
        "estimated_diameter_max" : 0.0542050786
      },
      "meters" : {
        "estimated_diameter_min" : 24.2412481101,
        "estimated_diameter_max" : 54.2050786336
      },
      "miles" : {
        "estimated_diameter_min" : 0.0150628086,
        "estimated_diameter_max" : 0.0336814639
      },
      "feet" : {
        "estimated_diameter_min" : 79.5316564495,
        "estimated_diameter_max" : 177.8381901842
      }
    },
    "is_potentially_hazardous_asteroid" : false,
    "close_approach_data" : [ {
      "close_approach_date" : "2007-09-19",
      "epoch_date_close_approach" : 1190185200000,
      "relative_velocity" : {
        "kilometers_per_second" : "19.1986669589",
        "kilometers_per_hour" : "69115.2010519532",
        "miles_per_hour" : "42945.4981203095"
      },
      "miss_distance" : {
        "astronomical" : "0.0331550135",
        "lunar" : "12.8972997665",
        "kilometers" : "4959919.5",
        "miles" : "3081951"
      },
      "orbiting_body" : "Earth"
    } ],
    "orbital_data" : {
      "orbit_id" : "8",
      "orbit_determination_date" : "2017-04-06 09:05:59",
      "first_observation_date" : "2007-09-15",
      "last_observation_date" : "2007-09-17",
      "data_arc_in_days" : 2,
      "observations_used" : 26,
      "orbit_uncertainty" : "8",
      "minimum_orbit_intersection" : ".0331528",
      "jupiter_tisserand_invariant" : "3.268",
      "epoch_osculation" : "2454360.5",
      "eccentricity" : ".6618307404670379",
      "semi_major_axis" : "2.225189515250522",
      "inclination" : "18.59528285840101",
      "ascending_node_longitude" : "351.6644497918539",
      "orbital_period" : "1212.408393393867",
      "perihelion_distance" : ".7524906906927797",
      "perihelion_argument" : "75.25696266204177",
      "aphelion_distance" : "3.697888339808264",
      "perihelion_time" : "2454408.256332224586",
      "mean_anomaly" : "345.8197289836265",
      "mean_motion" : ".2969296500762917",
      "equinox" : "J2000",
      "orbit_class" : {
        "orbit_class_type" : "APO",
        "orbit_class_range" : "a (semi-major axis) > 1.0 AU; q (perihelion) < 1.017 AU",
        "orbit_class_description" : "Near-Earth asteroid orbits which cross the Earth’s orbit similar to that of 1862 Apollo"
      }
    },
    "is_sentry_object" : false
  }, {
    "links" : {
      "self" : "https://api.nasa.gov/neo/rest/v1/neo/3385162?api_key=jqAGvNAwUIBu4fl9FSOjdm3V4F7hIglRzI6pdX9d"
    },
    "neo_reference_id" : "3385162",
    "name" : "(2007 RO133)",
    "designation" : "2007 RO133",
    "nasa_jpl_url" : "http://ssd.jpl.nasa.gov/sbdb.cgi?sstr=3385162",
    "absolute_magnitude_h" : 24.9,
    "estimated_diameter" : {
      "kilometers" : {
        "estimated_diameter_min" : 0.0278326768,
        "estimated_diameter_max" : 0.0622357573
      },
      "meters" : {
        "estimated_diameter_min" : 27.8326768072,
        "estimated_diameter_max" : 62.2357573367
      },
      "miles" : {
        "estimated_diameter_min" : 0.0172944182,
        "estimated_diameter_max" : 0.0386714948
      },
      "feet" : {
        "estimated_diameter_min" : 91.3145593761,
        "estimated_diameter_max" : 204.1855621004
      }
    },
    "is_potentially_hazardous_asteroid" : false,
    "close_approach_data" : [ {
      "close_approach_date" : "2007-09-13",
      "epoch_date_close_approach" : 1189666800000,
      "relative_velocity" : {
        "kilometers_per_second" : "9.545193604",
        "kilometers_per_hour" : "34362.6969743082",
        "miles_per_hour" : "21351.6435727306"
      },
      "miss_distance" : {
        "astronomical" : "0.0239714318",
        "lunar" : "9.324886322",
        "kilometers" : "3586075",
        "miles" : "2228283.75"
      },
      "orbiting_body" : "Earth"
    } ],
    "orbital_data" : {
      "orbit_id" : "7",
      "orbit_determination_date" : "2017-04-06 09:05:59",
      "first_observation_date" : "2007-09-15",
      "last_observation_date" : "2007-09-18",
      "data_arc_in_days" : 3,
      "observations_used" : 13,
      "orbit_uncertainty" : "9",
      "minimum_orbit_intersection" : ".0185215",
      "jupiter_tisserand_invariant" : "3.734",
      "epoch_osculation" : "2454359.5",
      "eccentricity" : ".4722988158661899",
      "semi_major_axis" : "1.938087340713972",
      "inclination" : "12.84167769870735",
      "ascending_node_longitude" : "172.1608017443856",
      "orbital_period" : "985.5041196935293",
      "perihelion_distance" : "1.02273098464951",
      "perihelion_argument" : "185.6005390871946",
      "aphelion_distance" : "2.853443696778433",
      "perihelion_time" : "2454362.856176631381",
      "mean_anomaly" : "358.7740045291004",
      "mean_motion" : ".3652952766062026",
      "equinox" : "J2000",
      "orbit_class" : {
        "orbit_class_type" : "AMO",
        "orbit_class_range" : "1.017 AU < q (perihelion) < 1.3 AU",
        "orbit_class_description" : "Near-Earth asteroid orbits similar to that of 1221 Amor"
      }
    },
    "is_sentry_object" : false
  }, {
    "links" : {
      "self" : "https://api.nasa.gov/neo/rest/v1/neo/3385643?api_key=jqAGvNAwUIBu4fl9FSOjdm3V4F7hIglRzI6pdX9d"
    },
    "neo_reference_id" : "3385643",
    "name" : "(2007 RS146)",
    "designation" : "2007 RS146",
    "nasa_jpl_url" : "http://ssd.jpl.nasa.gov/sbdb.cgi?sstr=3385643",
    "absolute_magnitude_h" : 23.3,
    "estimated_diameter" : {
      "kilometers" : {
        "estimated_diameter_min" : 0.058150704,
        "estimated_diameter_max" : 0.130028927
      },
      "meters" : {
        "estimated_diameter_min" : 58.1507039646,
        "estimated_diameter_max" : 130.0289270043
      },
      "miles" : {
        "estimated_diameter_min" : 0.0361331611,
        "estimated_diameter_max" : 0.0807962044
      },
      "feet" : {
        "estimated_diameter_min" : 190.7831555951,
        "estimated_diameter_max" : 426.6041048727
      }
    },
    "is_potentially_hazardous_asteroid" : false,
    "close_approach_data" : [ {
      "close_approach_date" : "2007-09-06",
      "epoch_date_close_approach" : 1189062000000,
      "relative_velocity" : {
        "kilometers_per_second" : "14.4433735565",
        "kilometers_per_hour" : "51996.1448033136",
        "miles_per_hour" : "32308.3823084812"
      },
      "miss_distance" : {
        "astronomical" : "0.0241720424",
        "lunar" : "9.4029245377",
        "kilometers" : "3616086",
        "miles" : "2246931.75"
      },
      "orbiting_body" : "Earth"
    } ],
    "orbital_data" : {
      "orbit_id" : "9",
      "orbit_determination_date" : "2017-04-06 09:05:58",
      "first_observation_date" : "2007-09-15",
      "last_observation_date" : "2007-10-05",
      "data_arc_in_days" : 20,
      "observations_used" : 25,
      "orbit_uncertainty" : "9",
      "minimum_orbit_intersection" : ".0241926",
      "jupiter_tisserand_invariant" : "3.236",
      "epoch_osculation" : "2454368.5",
      "eccentricity" : ".6404383241227969",
      "semi_major_axis" : "2.362833936230382",
      "inclination" : "2.652793615057144",
      "ascending_node_longitude" : "132.3418820635192",
      "orbital_period" : "1326.625150648262",
      "perihelion_distance" : ".8495845299305248",
      "perihelion_argument" : "158.1341671279901",
      "aphelion_distance" : "3.87608334253024",
      "perihelion_time" : "2454313.058108198779",
      "mean_anomaly" : "15.0450042641559",
      "mean_motion" : ".2713652758837599",
      "equinox" : "J2000",
      "orbit_class" : {
        "orbit_class_type" : "APO",
        "orbit_class_range" : "a (semi-major axis) > 1.0 AU; q (perihelion) < 1.017 AU",
        "orbit_class_description" : "Near-Earth asteroid orbits which cross the Earth’s orbit similar to that of 1862 Apollo"
      }
    },
    "is_sentry_object" : false
  } ]
}